IRIDIUM 36 [-]          
1 24967U 97056C   24096.48465623  .00000476  00000+0  15480-3 0  9991
2 24967  86.4022 356.8120 0002171  81.3068 278.8375 14.36711215389353
IRIDIUM 39 [-]          
1 25042U 97069D   24096.58255853  .00000818  00000+0  21557-3 0  9995
2 25042  86.3948  38.6053 0017305 333.6544  26.3778 14.47811231385610
IRIDIUM 38 [-]          
1 25043U 97069E   24096.58459502  .00000571  00000+0  18539-3 0  9995
2 25043  86.3953  57.1545 0004099  90.3424 269.8243 14.37150624383080
IRIDIUM 42 [-]          
1 25077U 97077A   24096.62138132  .00000529  00000+0  17721-3 0  9994
2 25077  86.3946  62.7755 0002874  92.4467 267.7058 14.35460259378400
IRIDIUM 44 [-]          
1 25078U 97077B   24096.56639841  .00000601  00000+0  18727-3 0  9999
2 25078  86.3973  45.8945 0003560  60.0126 300.1426 14.39288635380730
IRIDIUM 45 [-]          
1 25104U 97082A   24096.61372758  .00019415  00000+0  11297-2 0  9999
2 25104  86.3705 256.2592 0166751 142.8935 218.3967 15.00844285385966
IRIDIUM 24 [-]          
1 25105U 97082B   24096.53574483  .00000553  00000+0  16545-3 0  9995
2 25105  86.3862 265.6284 0013564  84.6119 275.6627 14.41052970380165
IRIDIUM 51 [-]          
1 25262U 98018A   24096.48098639  .00017708  00000+0  85896-3 0  9992
2 25262  86.3891 266.3501 0153132  90.6494 271.2291 15.08527980380442
